{"spkid": "54359258", "covariance": {"labels": ["e", "q", "tp", "node", "peri", "i"], "data": [["1.065096880804044E-13", "-1.062378875897839E-13", "2.618955659331012E-12", "3.950178364550723E-13", "-7.628465567508898E-12", "3.381631251218743E-13"], ["-1.062378875897839E-13", "1.059708073424215E-13", "-2.617562383839934E-12", "-3.942032617815338E-13", "7.609918816560216E-12", "-3.372234106716658E-13"], ["2.618955659331012E-12", "-2.617562383839934E-12", "7.148731168666338E-11", "1.192746348600624E-11", "-1.906607204706313E-10", "7.70566933855908E-12"], ["3.950178364550723E-13", "-3.942032617815338E-13", "1.192746348600624E-11", "1.716941587279038E-10", "-1.966366475468092E-10", "-1.016547717164674E-10"], ["-7.628465567508898E-12", "7.609918816560216E-12", "-1.906607204706313E-10", "-1.966366475468092E-10", "7.131225294509035E-10", "7.805568604815625E-11"], ["3.381631251218743E-13", "-3.372234106716658E-13", "7.70566933855908E-12", "-1.016547717164674E-10", "7.805568604815625E-11", "6.742876643228011E-11"]], "elements": [{"units": null, "value": ".5865487959044804", "title": "eccentricity", "name": "e", "sigma": 3.26358220488476e-07, "label": "e"}, {"units": "au", "value": ".423015463344019", "title": "perihelion distance", "sigma": 3.25531576567345e-07, "name": "q", "label": "q"}, {"units": "TDB", "value": "2460341.938640033759", "title": "time of perihelion passage", "sigma": 8.45501695365913e-06, "name": "tp", "label": "tp"}, {"title": "longitude of the ascending node", "value": "27.63450128717986", "units": "deg", "name": "om", "sigma": 1.31032117714667e-05, "label": "node"}, {"title": "argument of perihelion", "value": "49.71538178567683", "units": "deg", "sigma": 2.67043541290723e-05, "name": "w", "label": "peri"}, {"label": "i", "units": "deg", "title": "inclination", "value": "3.745740598337167", "sigma": 8.21150208136612e-06, "name": "i"}], "epoch": "2460309.5"}, "elements": [{"units": null, "value": ".5864163886892161", "title": "eccentricity", "sigma": "3.2665E-7", "name": "e", "label": "e"}, {"name": "a", "sigma": "2.0966E-8", "title": "semi-major axis", "value": "1.02232363961209", "units": "au", "label": "a"}, {"name": "q", "sigma": "3.2562E-7", "units": "au", "title": "perihelion distance", "value": ".4228163027991527", "label": "q"}, {"label": "i", "sigma": "8.1677E-6", "name": "i", "units": "deg", "value": "3.827499227976825", "title": "inclination; angle with respect to x-y ecliptic plane"}, {"label": "node", "value": "27.60939316498705", "title": "longitude of the ascending node", "units": "deg", "name": "om", "sigma": "1.2585E-5"}, {"label": "peri", "title": "argument of perihelion", "value": "49.69001071981825", "units": "deg", "name": "w", "sigma": "2.6262E-5"}, {"title": "mean anomaly", "value": "98.27802847056601", "units": "deg", "sigma": "3.2525E-5", "name": "ma", "label": "M"}, {"title": "time of perihelion passage", "value": "2461097.429361442652", "units": "TDB", "name": "tp", "sigma": "3.0982E-5", "label": "tp"}, {"name": "per", "sigma": "1.1615E-5", "units": "d", "value": "377.5557004764112", "title": "sidereal orbital period", "label": "period"}, {"label": "n", "sigma": "2.9332E-8", "name": "n", "title": "mean motion", "value": ".9535016940433984", "units": "deg/d"}, {"sigma": "3.3261E-8", "name": "ad", "value": "1.621830976425028", "title": "aphelion distance", "units": "au", "label": "Q"}], "epoch": "2461200.5"}